{"type": "FeatureCollection", "features": [{"type": "Feature", "properties": {"norad_id": 25590, "name": "COSMOS 2361", "group": "musson", "lat": -27.3473429054659, "lon": -29.93543637455765, "alt_km": 1000.3353830240585, "timestamp": "2025-12-26T17:24:54.989228+00:00", "meta": {"OBJECT_NAME": "COSMOS 2361", "OBJECT_ID": "1998-076A", "EPOCH": "2025-12-26T00:22:01.527744", "MEAN_MOTION": 13.73218941, "ECCENTRICITY": 0.00303552, "INCLINATION": 82.9346, "RA_OF_ASC_NODE": 334.2672, "ARG_OF_PERICENTER": 227.1925, "MEAN_ANOMALY": 195.3497, "EPHEMERIS_TYPE": 0, "CLASSIFICATION_TYPE": "U", "NORAD_CAT_ID": 25590, "ELEMENT_SET_NO": 999, "REV_AT_EPOCH": 35293, "BSTAR": 5.6917113e-05, "MEAN_MOTION_DOT": 6.8e-07, "MEAN_MOTION_DDOT": 0}, "tle": {"line1": "1 25590U 98076A   25360.01529546  .00000068  00000+0  56917-4 0  9994", "line2": "2 25590  82.9346 334.2672 0030355 227.1925 195.3497 13.73218941352935"}}, "geometry": {"type": "Point", "coordinates": [-29.93543637455765, -27.3473429054659]}}, {"type": "Feature", "properties": {"norad_id": 26818, "name": "COSMOS 2378", "group": "musson", "lat": 82.86041836606212, "lon": 86.98049610795393, "alt_km": 970.7752243630066, "timestamp": "2025-12-26T17:24:54.989249+00:00", "meta": {"OBJECT_NAME": "COSMOS 2378", "OBJECT_ID": "2001-023A", "EPOCH": "2025-12-26T01:33:12.760992", "MEAN_MOTION": 13.74143054, "ECCENTRICITY": 0.00332481, "INCLINATION": 82.9272, "RA_OF_ASC_NODE": 349.8438, "ARG_OF_PERICENTER": 167.5875, "MEAN_ANOMALY": 256.1209, "EPHEMERIS_TYPE": 0, "CLASSIFICATION_TYPE": "U", "NORAD_CAT_ID": 26818, "ELEMENT_SET_NO": 999, "REV_AT_EPOCH": 23106, "BSTAR": 4.077509e-05, "MEAN_MOTION_DOT": 5.4e-07, "MEAN_MOTION_DDOT": 0}, "tle": {"line1": "1 26818U 01023A   25360.06473103  .00000054  00000+0  40775-4 0  9996", "line2": "2 26818  82.9272 349.8438 0033248 167.5875 256.1209 13.74143054231064"}}, "geometry": {"type": "Point", "coordinates": [86.98049610795393, 82.86041836606212]}}, {"type": "Feature", "properties": {"norad_id": 27436, "name": "COSMOS 2389", "group": "musson", "lat": -11.191950448399508, "lon": -64.77077010778288, "alt_km": 956.5044472175441, "timestamp": "2025-12-26T17:24:54.989263+00:00", "meta": {"OBJECT_NAME": "COSMOS 2389", "OBJECT_ID": "2002-026A", "EPOCH": "2025-12-26T05:46:43.678848", "MEAN_MOTION": 13.75156079, "ECCENTRICITY": 0.00470185, "INCLINATION": 82.9514, "RA_OF_ASC_NODE": 296.9907, "ARG_OF_PERICENTER": 23.859, "MEAN_ANOMALY": 86.3341, "EPHEMERIS_TYPE": 0, "CLASSIFICATION_TYPE": "U", "NORAD_CAT_ID": 27436, "ELEMENT_SET_NO": 999, "REV_AT_EPOCH": 18334, "BSTAR": 6.6808591e-05, "MEAN_MOTION_DOT": 8e-07, "MEAN_MOTION_DDOT": 0}, "tle": {"line1": "1 27436U 02026A   25360.24078332  .00000080  00000+0  66809-4 0  9997", "line2": "2 27436  82.9514 296.9907 0047018  23.8590  86.3341 13.75156079183340"}}, "geometry": {"type": "Point", "coordinates": [-64.77077010778288, -11.191950448399508]}}, {"type": "Feature", "properties": {"norad_id": 27818, "name": "COSMOS 2398", "group": "musson", "lat": 16.807768326496983, "lon": 80.24975919278235, "alt_km": 990.7702053642624, "timestamp": "2025-12-26T17:24:54.989274+00:00", "meta": {"OBJECT_NAME": "COSMOS 2398", "OBJECT_ID": "2003-023A", "EPOCH": "2025-12-26T05:07:17.996736", "MEAN_MOTION": 13.72387226, "ECCENTRICITY": 0.0032681, "INCLINATION": 82.9482, "RA_OF_ASC_NODE": 262.7699, "ARG_OF_PERICENTER": 75.9149, "MEAN_ANOMALY": 77.3477, "EPHEMERIS_TYPE": 0, "CLASSIFICATION_TYPE": "U", "NORAD_CAT_ID": 27818, "ELEMENT_SET_NO": 999, "REV_AT_EPOCH": 13001, "BSTAR": 6.7800998e-05, "MEAN_MOTION_DOT": 7.8e-07, "MEAN_MOTION_DDOT": 0}, "tle": {"line1": "1 27818U 03023A   25360.21340274  .00000078  00000+0  67801-4 0  9993", "line2": "2 27818  82.9482 262.7699 0032681  75.9149  77.3477 13.72387226130018"}}, "geometry": {"type": "Point", "coordinates": [80.24975919278235, 16.807768326496983]}}, {"type": "Feature", "properties": {"norad_id": 28380, "name": "COSMOS 2407", "group": "musson", "lat": -15.805011201848227, "lon": 24.541845338054635, "alt_km": 1010.894304597965, "timestamp": "2025-12-26T17:24:54.989285+00:00", "meta": {"OBJECT_NAME": "COSMOS 2407", "OBJECT_ID": "2004-028A", "EPOCH": "2025-12-26T01:31:13.832256", "MEAN_MOTION": 13.763151, "ECCENTRICITY": 0.00396832, "INCLINATION": 82.9593, "RA_OF_ASC_NODE": 203.0276, "ARG_OF_PERICENTER": 18.3923, "MEAN_ANOMALY": 137.8378, "EPHEMERIS_TYPE": 0, "CLASSIFICATION_TYPE": "U", "NORAD_CAT_ID": 28380, "ELEMENT_SET_NO": 999, "REV_AT_EPOCH": 7606, "BSTAR": 3.602448e-05, "MEAN_MOTION_DOT": 5.1e-07, "MEAN_MOTION_DDOT": 0}, "tle": {"line1": "1 28380U 04028A   25360.06335454  .00000051  00000+0  36024-4 0  9995", "line2": "2 28380  82.9593 203.0276 0039683  18.3923 137.8378 13.76315100 76067"}}, "geometry": {"type": "Point", "coordinates": [24.541845338054635, -15.805011201848227]}}, {"type": "Feature", "properties": {"norad_id": 28521, "name": "COSMOS 2414", "group": "musson", "lat": -38.05242431208087, "lon": 168.5241942363009, "alt_km": 965.2591856684767, "timestamp": "2025-12-26T17:24:54.989296+00:00", "meta": {"OBJECT_NAME": "COSMOS 2414", "OBJECT_ID": "2005-002A", "EPOCH": "2025-12-26T05:29:20.936256", "MEAN_MOTION": 13.879046, "ECCENTRICITY": 0.00414345, "INCLINATION": 82.9488, "RA_OF_ASC_NODE": 174.4596, "ARG_OF_PERICENTER": 102.3053, "MEAN_ANOMALY": 258.2754, "EPHEMERIS_TYPE": 0, "CLASSIFICATION_TYPE": "U", "NORAD_CAT_ID": 28521, "ELEMENT_SET_NO": 999, "REV_AT_EPOCH": 5982, "BSTAR": 4.4991255e-05, "MEAN_MOTION_DOT": 7e-07, "MEAN_MOTION_DDOT": 0}, "tle": {"line1": "1 28521U 05002A   25360.22871454  .00000070  00000+0  44991-4 0  9991", "line2": "2 28521  82.9488 174.4596 0041434 102.3053 258.2754 13.87904600 59820"}}, "geometry": {"type": "Point", "coordinates": [168.5241942363009, -38.05242431208087]}}, {"type": "Feature", "properties": {"norad_id": 32052, "name": "COSMOS 2429", "group": "musson", "lat": 5.1150840240153705, "lon": 152.36652197281282, "alt_km": 1011.5545161072496, "timestamp": "2025-12-26T17:24:54.989307+00:00", "meta": {"OBJECT_NAME": "COSMOS 2429", "OBJECT_ID": "2007-038A", "EPOCH": "2025-12-26T00:51:08.061408", "MEAN_MOTION": 13.75150637, "ECCENTRICITY": 0.00384448, "INCLINATION": 82.9809, "RA_OF_ASC_NODE": 333.5069, "ARG_OF_PERICENTER": 1.214, "MEAN_ANOMALY": 358.9103, "EPHEMERIS_TYPE": 0, "CLASSIFICATION_TYPE": "U", "NORAD_CAT_ID": 32052, "ELEMENT_SET_NO": 999, "REV_AT_EPOCH": 91785, "BSTAR": 4.6145348e-05, "MEAN_MOTION_DOT": 6e-07, "MEAN_MOTION_DDOT": 0}, "tle": {"line1": "1 32052U 07038A   25360.03550997  .00000060  00000+0  46145-4 0  9993", "line2": "2 32052  82.9809 333.5069 0038444   1.2140 358.9103 13.75150637917857"}}, "geometry": {"type": "Point", "coordinates": [152.36652197281282, 5.1150840240153705]}}, {"type": "Feature", "properties": {"norad_id": 35635, "name": "COSMOS 2454", "group": "musson", "lat": 64.72887048514335, "lon": -37.140496051928345, "alt_km": 919.6132155143205, "timestamp": "2025-12-26T17:24:54.989332+00:00", "meta": {"OBJECT_NAME": "COSMOS 2454", "OBJECT_ID": "2009-039A", "EPOCH": "2025-12-26T00:09:39.040704", "MEAN_MOTION": 13.89930294, "ECCENTRICITY": 0.00199493, "INCLINATION": 82.9559, "RA_OF_ASC_NODE": 158.5879, "ARG_OF_PERICENTER": 37.9318, "MEAN_ANOMALY": 80.8204, "EPHEMERIS_TYPE": 0, "CLASSIFICATION_TYPE": "U", "NORAD_CAT_ID": 35635, "ELEMENT_SET_NO": 999, "REV_AT_EPOCH": 83334, "BSTAR": 5.4956356e-05, "MEAN_MOTION_DOT": 8.4e-07, "MEAN_MOTION_DDOT": 0}, "tle": {"line1": "1 35635U 09039A   25360.00670186  .00000084  00000+0  54956-4 0  9991", "line2": "2 35635  82.9559 158.5879 0019949  37.9318  80.8204 13.89930294833349"}}, "geometry": {"type": "Point", "coordinates": [-37.140496051928345, 64.72887048514335]}}, {"type": "Feature", "properties": {"norad_id": 36519, "name": "COSMOS 2463", "group": "musson", "lat": -44.15091248921285, "lon": 9.544901901477676, "alt_km": 990.4784160066456, "timestamp": "2025-12-26T17:24:54.989343+00:00", "meta": {"OBJECT_NAME": "COSMOS 2463", "OBJECT_ID": "2010-017A", "EPOCH": "2025-12-26T03:57:12.979584", "MEAN_MOTION": 13.71650325, "ECCENTRICITY": 0.00348292, "INCLINATION": 82.9603, "RA_OF_ASC_NODE": 16.8464, "ARG_OF_PERICENTER": 249.4013, "MEAN_ANOMALY": 177.5936, "EPHEMERIS_TYPE": 0, "CLASSIFICATION_TYPE": "U", "NORAD_CAT_ID": 36519, "ELEMENT_SET_NO": 999, "REV_AT_EPOCH": 78421, "BSTAR": 3.5998771e-05, "MEAN_MOTION_DOT": 4.7e-07, "MEAN_MOTION_DDOT": 0}, "tle": {"line1": "1 36519U 10017A   25360.16473356  .00000047  00000+0  35999-4 0  9993", "line2": "2 36519  82.9603  16.8464 0034829 249.4013 177.5936 13.71650325784215"}}, "geometry": {"type": "Point", "coordinates": [9.544901901477676, -44.15091248921285]}}]}